NORAD_CAT_ID,OBJECT_NAME,OBJECT_TYPE,EPOCH,MEAN_MOTION,ECCENTRICITY,INCLINATION,RA_OF_ASC_NODE,ARG_OF_PERICENTER,MEAN_ANOMALY,BSTAR,MEAN_MOTION_DOT,MEAN_MOTION_DDOT,TLE_LINE0,TLE_LINE1,TLE_LINE2,SEMIMAJOR_AXIS,PERIOD,APOGEE,PERIGEE,DECAYED
53616.0,STARLINK-4605,PAYLOAD,2022-10-23 08:00:01,15.73234001,0.0003838,53.2157,9.134,3.0445,341.7204,0.00028783,0.00040037,0.0,0 STARLINK-4605,1 53616U 22104AE  22296.33335648  .00040037  00000-0  28783-3 0  9991,2 53616  53.2157   9.1340 0003838   3.0445 341.7204 15.73234001  8882,6727.7980000000025,91.531,352.245,347.081,0.0
53616.0,STARLINK-4605,PAYLOAD,2022-10-23 14:00:01,15.73257448,0.0004068999999999,53.2155,7.8984,3.7695,317.6641,0.0001537,0.00021062,0.0,0 STARLINK-4605,1 53616U 22104AE  22296.58334491  .00021062  00000-0  15370-3 0  9998,2 53616  53.2155   7.8984 0004069   3.7695 317.6641 15.73257448  1307,6727.731,91.53,352.334,346.8590000000001,0.0
53616.0,STARLINK-4605,PAYLOAD,2022-10-23 22:00:00,15.73289819,0.000392,53.2151,6.2472,2.5547,47.8874,-0.00098345,-0.00137022,0.0,0 STARLINK-4605,1 53616U 22104AE  22296.91667824 -.00137022  00000-0 -98345-3 0  9993,2 53616  53.2151   6.2472 0003920   2.5547  47.8874 15.73289819  8984,6727.639,91.528,352.141,346.867,0.0
53616.0,STARLINK-4605,PAYLOAD,2022-10-24 14:00:01,15.7304941,0.0004173999999999,53.2153,2.95,359.1658,229.1266,0.0005489,0.0007665,0.0,0 STARLINK-4605,1 53616U 22104AE  22297.58334491  .00076650  00000-0  54890-3 0  9992,2 53616  53.2153   2.9500 0004174 359.1658 229.1266 15.73049410  1307,6728.325,91.542,352.99800000000016,347.381,0.0
53616.0,STARLINK-4605,PAYLOAD,2022-10-24 22:00:00,15.73105357,0.0003998,53.2154,1.2991,357.3483,319.7127,0.0007751,0.00109173,0.0,0 STARLINK-4605,1 53616U 22104AE  22297.91667824  .00109173  00000-0  77510-3 0  9999,2 53616  53.2154   1.2991 0003998 357.3483 319.7127 15.73105357  1308,6728.165,91.539,352.72,347.34,0.0
53616.0,STARLINK-4605,PAYLOAD,2022-10-25 14:00:01,15.73231974,0.0004207,53.2152,358.0017,358.0681,136.7967,-0.00016985,-0.00024439,0.0,0 STARLINK-4605,1 53616U 22104AE  22298.58334491 -.00024439  00000-0 -16985-3 0  9996,2 53616  53.2152 358.0017 0004207 358.0681 136.7967 15.73231974  9245,6727.804,91.531,352.499,346.839,0.0
53616.0,STARLINK-4605,PAYLOAD,2022-10-25 22:00:01,15.73188038,0.0003978,53.2149,356.3502,356.8425,227.0483,0.00034094,0.00047489,0.0,0 STARLINK-4605,1 53616U 22104AE  22298.91668981  .00047489  00000-0  34094-3 0  9996,2 53616  53.2149 356.3502 0003978 356.8425 227.0483 15.73188038  1305,6727.929,91.534,352.471,347.11800000000005,0.0
53616.0,STARLINK-4605,PAYLOAD,2022-10-26 14:00:01,15.73166708,0.0004216,53.2148,353.05300000000005,2.4214,39.3065,0.00069154,0.00097461,0.0,0 STARLINK-4605,1 53616U 22104AE  22299.58334491  .00097461  00000-0  69154-3 0  9996,2 53616  53.2148 353.0530 0004216   2.4214  39.3065 15.73166708  9404,6727.99,91.535,352.69199999999995,347.019,0.0
53616.0,STARLINK-4605,PAYLOAD,2022-10-26 22:00:00,15.73248959,0.0004034,53.2151,351.4014,2.5094,128.1542,-0.0005834,-0.00081923,0.0,0 STARLINK-4605,1 53616U 22104AE  22299.91667824 -.00081923  00000-0 -58340-3 0  9995,2 53616  53.2151 351.4014 0004034   2.5094 128.1542 15.73248959  9453,6727.755999999999,91.53,352.335,346.907,0.0
53616.0,STARLINK-4605,PAYLOAD,2022-10-27 06:00:00,15.73198481,0.0003959,53.2156,349.7517,4.5641,215.0695,-6.0592e-05,-9.122e-05,0.0,0 STARLINK-4605,1 53616U 22104AE  22300.25001157 -.00009122  00000-0 -60592-4 0  9990,2 53616  53.2156 349.7517 0003959   4.5641 215.0695 15.73198481  9506,6727.9,91.533,352.42800000000005,347.101,0.0
53616.0,STARLINK-4605,PAYLOAD,2022-10-27 14:00:01,15.73350169,0.0003672,53.2163,348.1045,353.3796,315.2163,-0.0039159,-0.00521225,0.0,0 STARLINK-4605,1 53616U 22104AE  22300.58335648 -.00521225  00000-0 -39159-2 0  9997,2 53616  53.2163 348.1045 0003672 353.3796 315.2163 15.73350169  9552,6727.467,91.524,351.802,346.862,0.0
53616.0,STARLINK-4605,PAYLOAD,2022-10-27 22:00:00,15.73130859,0.0003651,53.2172,346.4521,316.2586,81.1389,-0.0081465,-0.01029612,0.0,0 STARLINK-4605,1 53616U 22104AE  22300.91667824 -.01029612  00000-0 -81465-2 0  9999,2 53616  53.2172 346.4521 0003651 316.2586  81.1389 15.73130859  1300,6728.092,91.537,352.414,347.501,0.0
53616.0,STARLINK-4605,PAYLOAD,2022-10-28 00:00:02,15.72992253,0.0003559,53.2172,346.0391,310.7091,198.9225,-0.0089778,-0.01117548,0.0,0 STARLINK-4605,1 53616U 22104AE  22301.00002315 -.01117548  00000-0 -89778-2 0  9999,2 53616  53.2172 346.0391 0003559 310.7091 198.9225 15.72992253  9620,6728.488,91.545,352.747,347.958,0.0
53616.0,STARLINK-4605,PAYLOAD,2022-10-28 14:00:01,15.71593133,0.0006785,53.2169,343.1552,273.7669,299.5312,-0.009876,-0.01155552,0.0,0 STARLINK-4605,1 53616U 22104AE  22301.58335648 -.01155552  00000-0 -98760-2 0  9998,2 53616  53.2169 343.1552 0006785 273.7669 299.5312 15.71593133  1301,6732.48,91.627,358.913,349.777,0.0
53616.0,STARLINK-4605,PAYLOAD,2022-10-28 22:00:01,15.70747221,0.0006781,53.2174,341.5064,269.7696,30.0146,-0.0097642999999999,-0.01107689,0.0,0 STARLINK-4605,1 53616U 22104AE  22301.91668981 -.01107689  00000-0 -97643-2 0  9991,2 53616  53.2174 341.5064 0006781 269.7696  30.0146 15.70747221  1309,6734.897,91.676,361.329,352.195,0.0
53616.0,STARLINK-4605,PAYLOAD,2022-10-29 12:00:00,15.69327753,9.53e-05,53.2176,338.6313,326.9052,31.7839,-0.010461,-0.01113613,0.0,0 STARLINK-4605,1 53616U 22104AE  22302.50001157 -.01113613  00000-0 -10461-1 0  9999,2 53616  53.2176 338.6313 0000953 326.9052  31.7839 15.69327753  1301,6738.958000000001,91.759,361.465,360.181,0.0
53616.0,STARLINK-4605,PAYLOAD,2022-10-29 22:00:01,15.68312863,0.0001318,53.2174,336.5779,28.6791,164.6508,-0.010957,-0.0111787,0.0,0 STARLINK-4605,1 53616U 22104AE  22302.91668981 -.01117870  00000-0 -10957-1 0  9997,2 53616  53.2174 336.5779 0001318  28.6791 164.6508 15.68312863  1308,6741.865,91.818,364.61800000000005,362.841,0.0
53616.0,STARLINK-4605,PAYLOAD,2022-10-30 00:00:00,15.68108055,0.0001274999999999,53.2173,336.1678,35.2854,268.7114,-0.011031,-0.01134351,0.0,0 STARLINK-4605,1 53616U 22104AE  22303.00001157 -.01134351  00000-0 -11031-1 0  9991,2 53616  53.2173 336.1678 0001275  35.2854 268.7114 15.68108055  9939,6742.4519999999975,91.83,365.176,363.457,0.0
53616.0,STARLINK-4605,PAYLOAD,2022-10-30 14:00:01,15.6665851,0.000111,53.2167,333.3058,53.589,303.828,-0.0112909999999999,-0.01080516,0.0,0 STARLINK-4605,1 53616U 22104AE  22303.58334491 -.01080516  00000-0 -11291-1 0  9995,2 53616  53.2167 333.3058 0001110  53.5890 303.8280 15.66658510  1306,6746.61,91.915,369.224,367.726,0.0
53616.0,STARLINK-4605,PAYLOAD,2022-10-30 22:00:01,15.65870776,0.0001188,53.2173,331.6677,53.5356,24.541,-0.012084,-0.0113407999999999,0.0,0 STARLINK-4605,1 53616U 22104AE  22303.91668981 -.01134080  00000-0 -12084-1 0  9993,2 53616  53.2173 331.6677 0001188  53.5356  24.5410 15.65870776  1304,6748.873000000001,91.962,371.539,369.936,0.0
53616.0,STARLINK-4605,PAYLOAD,2022-10-31 14:00:01,15.64193532,0.0001262,53.2167,328.4072,53.8408,182.4656,-0.012024,-0.0104571,0.0,0 STARLINK-4605,1 53616U 22104AE  22304.58334491 -.01045710  00000-0 -12024-1 0  9998,2 53616  53.2167 328.4072 0001262  53.8408 182.4656 15.64193532  1307,6753.696,92.06,376.413,374.709,0.0
53616.0,STARLINK-4605,PAYLOAD,2022-10-31 22:00:01,15.63429426,0.0001155,53.2174,326.7751,55.0153,259.0071,-0.013309,-0.01132826,0.0,0 STARLINK-4605,1 53616U 22104AE  22304.91668981 -.01132826  00000-0 -13309-1 0  9991,2 53616  53.2174 326.7751 0001155  55.0153 259.0071 15.63429426 10239,6755.896,92.105,378.542,376.981,0.0
53616.0,STARLINK-4605,PAYLOAD,2022-11-01 14:00:01,15.61809932,0.0001406999999999,53.2166,323.5263,46.29600000000001,60.0638,-0.014327,-0.01143161,0.0,0 STARLINK-4605,1 53616U 22104AE  22305.58334491 -.01143161  00000-0 -14327-1 0  9996,2 53616  53.2166 323.5263 0001407  46.2960  60.0638 15.61809932  1300,6760.566,92.201,383.382,381.48,0.0
53616.0,STARLINK-4605,PAYLOAD,2022-11-01 22:00:00,15.60988779,0.0001393,53.2172,321.9004,53.2919,127.8103,-0.014643,-0.01132654,0.0,0 STARLINK-4605,1 53616U 22104AE  22305.91667824 -.01132654  00000-0 -14643-1 0  9998,2 53616  53.2172 321.9004 0001393  53.2919 127.8103 15.60988779  1303,6762.937,92.249,385.744,383.86,0.0
53616.0,STARLINK-4605,PAYLOAD,2022-11-02 14:00:01,15.59363601,0.0001252999999999,53.2172,318.6624,46.831,280.8097,-0.015627,-0.01134988,0.0,0 STARLINK-4605,1 53616U 22104AE  22306.58334491 -.01134988  00000-0 -15627-1 0  9998,2 53616  53.2172 318.6624 0001253  46.8310 280.8097 15.59363601  1303,6767.635,92.345,390.348,388.652,0.0
53616.0,STARLINK-4605,PAYLOAD,2022-11-02 22:00:00,15.58547059,0.0001212,53.2173,317.0434,49.924,349.5231,-0.016073,-0.01131832,0.0,0 STARLINK-4605,1 53616U 22104AE  22306.91667824 -.01131832  00000-0 -16073-1 0  9995,2 53616  53.2173 317.0434 0001212  49.9240 349.5231 15.58547059  1300,6769.998000000001,92.394,392.684,391.043,0.0
53616.0,STARLINK-4605,PAYLOAD,2022-11-03 06:00:02,15.57724644,0.000138,53.2168,315.4306,61.3864,48.9534,-0.016368,-0.01118604,0.0,0 STARLINK-4605,1 53616U 22104AE  22307.25002315 -.01118604  00000-0 -16368-1 0  9990,2 53616  53.2168 315.4306 0001380  61.3864  48.9534 15.57724644 10605,6772.380999999999,92.443,395.181,393.311,0.0
53616.0,STARLINK-4605,PAYLOAD,2022-11-03 14:00:01,15.5688591,0.0001518,53.2162,313.8186,52.6745,127.4597,-0.016324,-0.01084343,0.0,0 STARLINK-4605,1 53616U 22104AE  22307.58334491 -.01084343  00000-0 -16324-1 0  9993,2 53616  53.2162 313.8186 0001518  52.6745 127.4597 15.56885910  1303,6774.813,92.492,397.706,395.65,0.0
53616.0,STARLINK-4605,PAYLOAD,2022-11-03 22:00:00,15.5610575,0.0001314,53.2174,312.2042,59.099,189.8917,-0.017598,-0.01130377,0.0,0 STARLINK-4605,1 53616U 22104AE  22307.91667824 -.01130377  00000-0 -17598-1 0  9992,2 53616  53.2174 312.2042 0001314  59.0990 189.8917 15.56105750 10706,6777.0769999999975,92.539,399.833,398.052,0.0
